OBJECT_NAME,OBJECT_ID,EPOCH,MEAN_MOTION,ECCENTRICITY,INCLINATION,RA_OF_ASC_NODE,ARG_OF_PERICENTER,MEAN_ANOMALY,EPHEMERIS_TYPE,CLASSIFICATION_TYPE,NORAD_CAT_ID,ELEMENT_SET_NO,REV_AT_EPOCH,BSTAR,MEAN_MOTION_DOT,MEAN_MOTION_DDOT
TERRA,1999-068A,2014-05-23T12:26:41.515584,14.57103999,.0001506,98.2112,218.5929,107.3532,252.7832,0,U,25994,266,76747,.92644E-4,.372E-5,0
TERRA,1999-068A,2014-05-23T20:41:06.890784,14.57103781,.0001572,98.2117,218.9319,107.8401,252.2932,0,U,25994,267,76752,.78239E-4,.307E-5,0
TERRA,1999-068A,2014-05-24T04:55:32.333376,14.57104158,.0001577,98.2116,219.2704,108.0915,252.0459,0,U,25994,268,76757,.8033E-4,.317E-5,0
TERRA,1999-068A,2014-05-24T13:09:57.706848,14.57104495,.0001602,98.2116,219.6090,108.5997,251.5382,0,U,25994,269,76762,.78572E-4,.309E-5,0
TERRA,1999-068A,2014-05-24T21:24:23.095008,14.57104341,.0001606,98.2121,219.9482,105.5591,254.5759,0,U,25994,270,76767,.7351E-4,.286E-5,0
TERRA,1999-068A,2014-05-25T05:38:48.504768,14.57105117,.0001556,98.2118,220.2868,106.5509,253.5890,0,U,25994,271,76772,.8723E-4,.348E-5,0
TERRA,1999-068A,2014-05-25T12:14:20.747040,14.57105461,.0001556,98.2121,220.5579,105.8540,254.2834,0,U,25994,272,76776,.91244E-4,.366E-5,0
TERRA,1999-068A,2014-05-25T20:28:46.104096,14.57105402,.0001591,98.2121,220.8965,105.8920,254.2430,0,U,25994,273,76781,.86383E-4,.344E-5,0
TERRA,1999-068A,2014-05-26T04:43:11.496576,14.57105868,.0001615,98.2122,221.2352,104.9867,255.1517,0,U,25994,274,76786,.88339E-4,.353E-5,0
TERRA,1999-068A,2014-05-26T12:57:36.828576,14.57106276,.0001595,98.2122,221.5736,104.7916,255.3466,0,U,25994,275,76791,.90214E-4,.361E-5,0
TERRA,1999-068A,2014-05-26T21:12:02.179584,14.57105938,.0001613,98.2124,221.9123,104.9041,255.2309,0,U,25994,276,76796,.77E-4,.302E-5,0
TERRA,1999-068A,2014-05-27T05:26:27.564288,14.57106419,.0001594,98.2125,222.2506,105.6948,254.4444,0,U,25994,277,76801,.7891E-4,.31E-5,0
TERRA,1999-068A,2014-05-27T12:01:59.821248,14.57106732,.0001647,98.2129,222.5219,103.0156,257.1231,0,U,25994,278,76805,.81915E-4,.324E-5,0
TERRA,1999-068A,2014-05-27T20:16:25.157568,14.57106478,.0001621,98.2131,222.8608,102.3302,257.8054,0,U,25994,279,76810,.69402E-4,.267E-5,0
TERRA,1999-068A,2014-05-28T04:30:50.518944,14.57107105,.0001594,98.2127,223.1992,104.7622,255.3775,0,U,25994,280,76815,.81265E-4,.321E-5,0
TERRA,1999-068A,2014-05-28T12:45:15.798240,14.57107386,.0001616,98.2126,223.5376,105.0611,255.0767,0,U,25994,281,76820,.78431E-4,.308E-5,0
TERRA,1999-068A,2014-05-28T20:59:41.129376,14.57106812,.0001581,98.2125,223.8762,104.5899,255.5439,0,U,25994,282,76825,.5251E-4,.191E-5,0
TERRA,1999-068A,2014-05-29T05:14:06.501984,14.57107630,.0001579,98.2125,224.2147,106.1968,253.9432,0,U,25994,283,76830,.74072E-4,.288E-5,0
TERRA,1999-068A,2014-05-29T16:46:17.903712,14.57107692,.0001633,98.2123,224.6883,107.2414,252.8961,0,U,25994,284,76837,.60824E-4,.229E-5,0
TERRA,1999-068A,2014-05-29T20:04:04.035648,14.57107476,.0001612,98.2123,224.8238,105.0891,255.0459,0,U,25994,285,76839,.57016E-4,.212E-5,0
TERRA,1999-068A,2014-05-30T04:18:29.388384,14.57108178,.0001608,98.2121,225.1629,107.0426,253.0977,0,U,25994,286,76844,.73067E-4,.284E-5,0
TERRA,1999-068A,2014-05-30T12:32:54.642624,14.57108430,.0001631,98.2120,225.5013,106.9247,253.2134,0,U,25994,287,76849,.69438E-4,.268E-5,0
TERRA,1999-068A,2014-05-30T20:47:19.931424,14.57108156,.0001684,98.2120,225.8401,108.1278,252.0074,0,U,25994,288,76854,.57885E-4,.215E-5,0
TERRA,1999-068A,2014-05-31T05:01:45.271200,14.57108736,.0001669,98.2120,226.1788,106.7860,253.3530,0,U,25994,289,76859,.70524E-4,.272E-5,0
TERRA,1999-068A,2014-05-31T13:16:10.561728,14.57108660,.0001677,98.2118,226.5174,107.0490,253.0891,0,U,25994,290,76864,.55032E-4,.203E-5,0
TERRA,1999-068A,2014-05-31T19:51:42.799680,14.57108324,.0001748,98.2119,226.7884,107.1968,252.9391,0,U,25994,291,76868,.437E-4,.152E-5,0
TERRA,1999-068A,2014-06-01T04:06:08.129088,14.57109057,.0001716,98.2116,227.1274,107.6312,252.5092,0,U,25994,292,76873,.63334E-4,.24E-5,0
TERRA,1999-068A,2014-06-01T12:20:33.381600,14.57109232,.0001757,98.2116,227.4663,108.3842,251.7551,0,U,25994,293,76878,.59215E-4,.221E-5,0
TERRA,1999-068A,2014-06-01T20:34:58.660032,14.57109035,.0001709,98.2112,227.8042,105.9648,254.1706,0,U,25994,294,76883,.50701E-4,.183E-5,0
TERRA,1999-068A,2014-06-02T04:49:23.996352,14.57109397,.000169,98.2111,228.1428,106.6649,253.4751,0,U,25994,295,76888,.53846E-4,.197E-5,0
TERRA,1999-068A,2014-06-02T13:03:49.238496,14.57109946,.0001729,98.2112,228.4815,106.1725,253.9676,0,U,25994,296,76893,.64038E-4,.243E-5,0
