TERRA                   
1 25994U 99068A   14143.51853606  .00000372  00000+0  92644-4 0  2665
2 25994  98.2112 218.5929 0001506 107.3532 252.7832 14.57103999767471
TERRA                   
1 25994U 99068A   14143.86188531  .00000307  00000+0  78239-4 0  2674
2 25994  98.2117 218.9319 0001572 107.8401 252.2932 14.57103781767527
TERRA                   
1 25994U 99068A   14144.20523534  .00000317  00000+0  80330-4 0  2686
2 25994  98.2116 219.2704 0001577 108.0915 252.0459 14.57104158767572
TERRA                   
1 25994U 99068A   14144.54858457  .00000309  00000+0  78572-4 0  2695
2 25994  98.2116 219.6090 0001602 108.5997 251.5382 14.57104495767627
TERRA                   
1 25994U 99068A   14144.89193397  .00000286  00000+0  73510-4 0  2701
2 25994  98.2121 219.9482 0001606 105.5591 254.5759 14.57104341767678
TERRA                   
1 25994U 99068A   14145.23528362  .00000348  00000+0  87230-4 0  2718
2 25994  98.2118 220.2868 0001556 106.5509 253.5890 14.57105117767724
TERRA                   
1 25994U 99068A   14145.50996235  .00000366  00000+0  91244-4 0  2727
2 25994  98.2121 220.5579 0001556 105.8540 254.2834 14.57105461767769
TERRA                   
1 25994U 99068A   14145.85331139  .00000344  00000+0  86383-4 0  2736
2 25994  98.2121 220.8965 0001591 105.8920 254.2430 14.57105402767815
TERRA                   
1 25994U 99068A   14146.19666084  .00000353  00000+0  88339-4 0  2748
2 25994  98.2122 221.2352 0001615 104.9867 255.1517 14.57105868767865
TERRA                   
1 25994U 99068A   14146.54000959  .00000361  00000+0  90214-4 0  2755
2 25994  98.2122 221.5736 0001595 104.7916 255.3466 14.57106276767919
TERRA                   
1 25994U 99068A   14146.88335856  .00000302  00000+0  77000-4 0  2763
2 25994  98.2124 221.9123 0001613 104.9041 255.2309 14.57105938767961
TERRA                   
1 25994U 99068A   14147.22670792  .00000310  00000+0  78910-4 0  2774
2 25994  98.2125 222.2506 0001594 105.6948 254.4444 14.57106419768016
TERRA                   
1 25994U 99068A   14147.50138682  .00000324  00000+0  81915-4 0  2787
2 25994  98.2129 222.5219 0001647 103.0156 257.1231 14.57106732768052
TERRA                   
1 25994U 99068A   14147.84473562  .00000267  00000+0  69402-4 0  2797
2 25994  98.2131 222.8608 0001621 102.3302 257.8054 14.57106478768100
TERRA                   
1 25994U 99068A   14148.18808471  .00000321  00000+0  81265-4 0  2800
2 25994  98.2127 223.1992 0001594 104.7622 255.3775 14.57107105768151
TERRA                   
1 25994U 99068A   14148.53143285  .00000308  00000+0  78431-4 0  2811
2 25994  98.2126 223.5376 0001616 105.0611 255.0767 14.57107386768202
TERRA                   
1 25994U 99068A   14148.87478159  .00000191  00000+0  52510-4 0  2820
2 25994  98.2125 223.8762 0001581 104.5899 255.5439 14.57106812768255
TERRA                   
1 25994U 99068A   14149.21813081  .00000288  00000+0  74072-4 0  2831
2 25994  98.2125 224.2147 0001579 106.1968 253.9432 14.57107630768309
TERRA                   
1 25994U 99068A   14149.69881833  .00000229  00000+0  60824-4 0  2849
2 25994  98.2123 224.6883 0001633 107.2414 252.8961 14.57107692768377
TERRA                   
1 25994U 99068A   14149.83615782  .00000212  00000+0  57016-4 0  2855
2 25994  98.2123 224.8238 0001612 105.0891 255.0459 14.57107476768394
TERRA                   
1 25994U 99068A   14150.17950681  .00000284  00000+0  73067-4 0  2868
2 25994  98.2121 225.1629 0001608 107.0426 253.0977 14.57108178768440
TERRA                   
1 25994U 99068A   14150.52285466  .00000268  00000+0  69438-4 0  2879
2 25994  98.2120 225.5013 0001631 106.9247 253.2134 14.57108430768498
TERRA                   
1 25994U 99068A   14150.86620291  .00000215  00000+0  57885-4 0  2881
2 25994  98.2120 225.8401 0001684 108.1278 252.0074 14.57108156768549
TERRA                   
1 25994U 99068A   14151.20955175  .00000272  00000+0  70524-4 0  2891
2 25994  98.2120 226.1788 0001669 106.7860 253.3530 14.57108736768595
TERRA                   
1 25994U 99068A   14151.55290002  .00000203  00000+0  55032-4 0  2903
2 25994  98.2118 226.5174 0001677 107.0490 253.0891 14.57108660768646
TERRA                   
1 25994U 99068A   14151.82757870  .00000152  00000+0  43700-4 0  2917
2 25994  98.2119 226.7884 0001748 107.1968 252.9391 14.57108324768681
TERRA                   
1 25994U 99068A   14152.17092742  .00000240  00000+0  63334-4 0  2920
2 25994  98.2116 227.1274 0001716 107.6312 252.5092 14.57109057768733
TERRA                   
1 25994U 99068A   14152.51427525  .00000221  00000+0  59215-4 0  2932
2 25994  98.2116 227.4663 0001757 108.3842 251.7551 14.57109232768780
TERRA                   
1 25994U 99068A   14152.85762338  .00000183  00000+0  50701-4 0  2942
2 25994  98.2112 227.8042 0001709 105.9648 254.1706 14.57109035768831
TERRA                   
1 25994U 99068A   14153.20097218  .00000197  00000+0  53846-4 0  2959
2 25994  98.2111 228.1428 0001690 106.6649 253.4751 14.57109397768888
TERRA                   
1 25994U 99068A   14153.54431989  .00000243  00000+0  64038-4 0  2961
2 25994  98.2112 228.4815 0001729 106.1725 253.9676 14.57109946768932
